NORAD_CAT_ID,OBJECT_NAME,OBJECT_TYPE,EPOCH,MEAN_MOTION,ECCENTRICITY,INCLINATION,RA_OF_ASC_NODE,ARG_OF_PERICENTER,MEAN_ANOMALY,BSTAR,MEAN_MOTION_DOT,MEAN_MOTION_DDOT,TLE_LINE0,TLE_LINE1,TLE_LINE2,SEMIMAJOR_AXIS,PERIOD,APOGEE,PERIGEE,DECAYED
47762,STARLINK-2180,PAYLOAD,2022-08-24 08:49:40,15.06394133,0.0001272,53.0548,272.5859,70.3498,289.7628,1.0304e-07,-2.8e-06,0.0,0 STARLINK-2180,1 47762U 21017AS  22236.36783450 -.00000280  00000-0  10304-6 0  9993,2 47762  53.0548 272.5859 0001272  70.3498 289.7628 15.06394133 82607,6925.3669999999975,95.593,548.112,546.351,0.0
47762,STARLINK-2180,PAYLOAD,2022-08-25 08:42:46,15.06397547,0.0001453999999999,53.0548,268.1193,60.2078,299.9056,-7.4704e-06,-3.93e-06,0.0,0 STARLINK-2180,1 47762U 21017AS  22237.36303604 -.00000393  00000-0 -74704-5 0  9992,2 47762  53.0548 268.1193 0001454  60.2078 299.9056 15.06397547 82108,6925.356,95.592,548.2280000000002,546.214,0.0
47762,STARLINK-2180,PAYLOAD,2022-08-25 11:53:51,15.06379667,0.0001402,53.0547,267.5236,71.8564,288.2578,0.00027681,3.842e-05,0.0,0 STARLINK-2180,1 47762U 21017AS  22237.49573535  .00003842  00000-0  27681-3 0  9998,2 47762  53.0547 267.5236 0001402  71.8564 288.2578 15.06379667 82775,6925.411,95.593,548.247,546.305,0.0
47762,STARLINK-2180,PAYLOAD,2022-08-26 02:13:42,15.06394924,0.0001453999999999,53.0547,264.8435,57.0132,303.0996,0.00010546,1.289e-05,0.0,0 STARLINK-2180,1 47762U 21017AS  22238.09285139  .00001289  00000-0  10546-3 0  9990,2 47762  53.0547 264.8435 0001454  57.0132 303.0996 15.06394924 82212,6925.364000000001,95.592,548.236,546.222,0.0
47762,STARLINK-2180,PAYLOAD,2022-08-26 08:35:51,15.06396479,0.0001474,53.0548,263.6524,55.82100000000001,304.2919,0.00011253,1.395e-05,0.0,0 STARLINK-2180,1 47762U 21017AS  22238.35823836  .00001395  00000-0  11253-3 0  9995,2 47762  53.0548 263.6524 0001474  55.8210 304.2919 15.06396479 82905,6925.359,95.592,548.245,546.2040000000002,0.0
47762,STARLINK-2180,PAYLOAD,2022-08-27 06:53:24,15.06403016,0.00015,53.0547,259.4825,55.8451,304.2681,0.00012522,1.584e-05,0.0,0 STARLINK-2180,1 47762U 21017AS  22239.28709056  .00001584  00000-0  12522-3 0  9995,2 47762  53.0547 259.4825 0001500  55.8451 304.2681 15.06403016 83046,6925.339,95.592,548.243,546.1659999999998,0.0
47762,STARLINK-2180,PAYLOAD,2022-08-28 08:22:02,15.06396351,0.0001571,53.0545,254.7163,55.4363,304.6774,1.2768e-05,-9.1e-07,0.0,0 STARLINK-2180,1 47762U 21017AS  22240.34864412 -.00000091  00000-0  12768-4 0  9998,2 47762  53.0545 254.7163 0001571  55.4363 304.6774 15.06396351 82558,6925.36,95.592,548.313,546.137,0.0
47762,STARLINK-2180,PAYLOAD,2022-08-29 08:15:08,15.06399618,0.0001603,53.0544,250.2485,58.8884,301.2262,8.5579e-06,-1.54e-06,0.0,0 STARLINK-2180,1 47762U 21017AS  22241.34384399 -.00000154  00000-0  85579-5 0  9991,2 47762  53.0544 250.2485 0001603  58.8884 301.2262 15.06399618 83359,6925.35,95.592,548.325,546.105,0.0
47762,STARLINK-2180,PAYLOAD,2022-08-30 00:10:31,15.06400935,0.000172,53.0544,247.2701,57.6564,302.4591,0.00012167,1.531e-05,0.0,0 STARLINK-2180,1 47762U 21017AS  22242.00731008  .00001531  00000-0  12167-3 0  9998,2 47762  53.0544 247.2701 0001720  57.6564 302.4591 15.06400935 82800,6925.346,95.592,548.4019999999998,546.02,0.0
47762,STARLINK-2180,PAYLOAD,2022-08-30 06:32:41,15.06399064,0.0001739,53.0545,246.0789,57.7764,302.3393,8.9504e-05,1.052e-05,0.0,0 STARLINK-2180,1 47762U 21017AS  22242.27269681  .00001052  00000-0  89504-4 0  9998,2 47762  53.0545 246.0789 0001739  57.7764 302.3393 15.06399064 83492,6925.351,95.592,548.4209999999998,546.012,0.0
47762,STARLINK-2180,PAYLOAD,2022-08-31 09:36:51,15.06392884,0.0001792,53.0552,241.0162,59.2552,300.8613,1.2173e-05,-1e-06,0.0,0 STARLINK-2180,1 47762U 21017AS  22243.40060038 -.00000100  00000-0  12173-4 0  9991,2 47762  53.0552 241.0162 0001792  59.2552 300.8613 15.06392884 83661,6925.37,95.593,548.476,545.994,0.0
47762,STARLINK-2180,PAYLOAD,2022-09-01 09:29:57,15.0639563,0.0001811999999999,53.0548,236.5484,57.9567,302.1597,-7.468399999999998e-07,-2.93e-06,0.0,0 STARLINK-2180,1 47762U 21017AS  22244.39580420 -.00000293  00000-0 -74684-6 0  9993,2 47762  53.0548 236.5484 0001812  57.9567 302.1597 15.06395630 83169,6925.361999999999,95.592,548.482,545.972,0.0
47762,STARLINK-2180,PAYLOAD,2022-09-02 09:23:02,15.0639793,0.0001814,53.0545,232.081,57.3299,302.7864,0.00013835,1.7800000000000002e-05,0.0,0 STARLINK-2180,1 47762U 21017AS  22245.39100389  .00001780  00000-0  13835-3 0  9994,2 47762  53.0545 232.0810 0001814  57.3299 302.7864 15.06397930 83964,6925.355,95.592,548.476,545.964,0.0
47762,STARLINK-2180,PAYLOAD,2022-09-02 15:45:12,15.06401004,0.000182,53.0546,230.8896,57.6408,302.4756,0.00015842,2.079e-05,0.0,0 STARLINK-2180,1 47762U 21017AS  22245.65638936  .00002079  00000-0  15842-3 0  9999,2 47762  53.0546 230.8896 0001820  57.6408 302.4756 15.06401004 83355,6925.345,95.592,548.471,545.95,0.0
47762,STARLINK-2180,PAYLOAD,2022-09-03 04:29:31,15.06391927,0.0001815,53.0549,228.5068,58.209,301.9075,2.8634e-05,1.45e-06,0.0,0 STARLINK-2180,1 47762U 21017AS  22246.18717468  .00000145  00000-0  28634-4 0  9992,2 47762  53.0549 228.5068 0001815  58.2090 301.9075 15.06391927 83430,6925.373000000001,95.593,548.495,545.981,0.0
47762,STARLINK-2180,PAYLOAD,2022-09-03 09:16:09,15.06391723,0.0001815,53.0548,227.6133,57.4365,302.6799,1.827e-05,-1e-07,0.0,0 STARLINK-2180,1 47762U 21017AS  22246.38621602 -.00000010  00000-0  18270-4 0  9995,2 47762  53.0548 227.6133 0001815  57.4365 302.6799 15.06391723 84119,6925.374,95.593,548.496,545.982,0.0
47762,STARLINK-2180,PAYLOAD,2022-09-03 22:00:27,15.0639771,0.0001802,53.0551,225.2305,58.4033,301.7132,5.708100000000001e-05,5.69e-06,0.0,0 STARLINK-2180,1 47762U 21017AS  22246.91698685  .00000569  00000-0  57081-4 0  9990,2 47762  53.0551 225.2305 0001802  58.4033 301.7132 15.06397710 84198,6925.356,95.592,548.469,545.9730000000002,0.0
47762,STARLINK-2180,PAYLOAD,2022-09-04 04:22:36,15.06401619,0.0001801,53.0551,224.0391,59.1221,300.9945,4.634600000000001e-05,4.09e-06,0.0,0 STARLINK-2180,1 47762U 21017AS  22247.18237102  .00000409  00000-0  46346-4 0  9998,2 47762  53.0551 224.0391 0001801  59.1221 300.9945 15.06401619 83585,6925.344,95.592,548.456,545.961,0.0
47762,STARLINK-2180,PAYLOAD,2022-09-04 07:33:41,15.06403683,0.0001811999999999,53.055,223.4434,59.3686,300.7482,6.423899999999999e-05,6.75e-06,0.0,0 STARLINK-2180,1 47762U 21017AS  22247.31506268  .00000675  00000-0  64239-4 0  9991,2 47762  53.0550 223.4434 0001812  59.3686 300.7482 15.06403683 84256,6925.337,95.592,548.457,545.947,0.0
47762,STARLINK-2180,PAYLOAD,2022-09-05 04:15:41,15.0641242,0.0001835,53.0545,219.5714,58.7578,301.3591,0.00031776,4.456e-05,0.0,0 STARLINK-2180,1 47762U 21017AS  22248.17756282  .00004456  00000-0  31776-3 0  9999,2 47762  53.0545 219.5714 0001835  58.7578 301.3591 15.06412420 83734,6925.31,95.591,548.446,545.905,0.0
47762,STARLINK-2180,PAYLOAD,2022-09-05 07:26:46,15.06411273,0.0001836,53.0545,218.9757,58.4058,301.711,0.00028259,3.931e-05,0.0,0 STARLINK-2180,1 47762U 21017AS  22248.31025647  .00003931  00000-0  28259-3 0  9998,2 47762  53.0545 218.9757 0001836  58.4058 301.7110 15.06411273 84406,6925.314,95.591,548.45,545.908,0.0
47762,STARLINK-2180,PAYLOAD,2022-09-06 04:08:46,15.06402116,0.0001447,53.0548,215.1034,59.2595,300.8537,-2.7641e-05,-6.93e-06,0.0,0 STARLINK-2180,1 47762U 21017AS  22249.17276442 -.00000693  00000-0 -27641-4 0  9993,2 47762  53.0548 215.1034 0001447  59.2595 300.8537 15.06402116 83889,6925.342,95.592,548.2090000000002,546.205,0.0
47762,STARLINK-2180,PAYLOAD,2022-09-06 07:19:51,15.06399886,0.0001528,53.055,214.5081,58.4922,301.6216,-5.5552e-05,-1.109e-05,0.0,0 STARLINK-2180,1 47762U 21017AS  22249.30545935 -.00001109  00000-0 -55552-4 0  9999,2 47762  53.0550 214.5081 0001528  58.4922 301.6216 15.06399886 84559,6925.349,95.592,548.2719999999998,546.156,0.0
47762,STARLINK-2180,PAYLOAD,2022-09-06 15:17:34,15.06390351,0.0001729,53.0553,213.0198,56.5611,303.5543,-0.00020826,-3.381e-05,0.0,0 STARLINK-2180,1 47762U 21017AS  22249.63719968 -.00003381  00000-0 -20826-3 0  9993,2 47762  53.0553 213.0198 0001729  56.5611 303.5543 15.06390351 84600,6925.378000000002,95.593,548.441,546.0459999999998,0.0
47762,STARLINK-2180,PAYLOAD,2022-09-07 07:12:57,15.06399744,0.0001709,53.0552,210.0411,55.1282,304.9867,1.2727e-06,-2.63e-06,0.0,0 STARLINK-2180,1 47762U 21017AS  22250.30066443 -.00000263  00000-0  12727-5 0  9990,2 47762  53.0552 210.0411 0001709  55.1282 304.9867 15.06399744 84059,6925.349,95.592,548.398,546.031,0.0
47762,STARLINK-2180,PAYLOAD,2022-09-07 16:46:12,15.06390199,0.000152,53.0549,208.251,79.6079,280.5081,-7.2993e-05,-1.368e-05,0.0,0 STARLINK-2180,1 47762U 21017AS  22250.69875415 -.00001368  00000-0 -72993-4 0  9997,2 47762  53.0549 208.2510 0001520  79.6079 280.5081 15.06390199 84119,6925.379,95.593,548.2959999999998,546.191,0.0
47762,STARLINK-2180,PAYLOAD,2022-09-07 21:32:49,15.06389387,0.0001476999999999,53.0553,207.3582,71.102,289.0129,-3.0887e-08,-2.82e-06,0.0,0 STARLINK-2180,1 47762U 21017AS  22250.89779457 -.00000282  00000-0 -30887-7 0  9991,2 47762  53.0553 207.3582 0001477  71.1020 289.0129 15.06389387 84795,6925.380999999999,95.593,548.269,546.2230000000002,0.0
47762,STARLINK-2180,PAYLOAD,2022-09-08 05:30:31,15.06393344,0.0001742,53.0546,205.871,61.2704,298.846,6.580300000000001e-05,6.99e-06,0.0,0 STARLINK-2180,1 47762U 21017AS  22251.22952749  .00000699  00000-0  65803-4 0  9999,2 47762  53.0546 205.8710 0001742  61.2704 298.8460 15.06393344 84847,6925.369000000002,95.593,548.44,546.028,0.0
47762,STARLINK-2180,PAYLOAD,2022-09-08 19:50:22,15.06388345,0.0001675999999999,53.0551,203.1894,61.7369,298.3789,0.00013317,1.702e-05,0.0,0 STARLINK-2180,1 47762U 21017AS  22251.82665413  .00001702  00000-0  13317-3 0  9992,2 47762  53.0551 203.1894 0001676  61.7369 298.3789 15.06388345 84939,6925.384,95.593,548.41,546.089,0.0
